start=new Date('2022-07-20T00:00:00.000Z').valueOf();
sats=[{"MEAN_MOTION_DOT":"0.00002025","RCS_SIZE":"LARGE","BSTAR":"0.00015478000000","RA_OF_ASC_NODE":"162.0873","MEAN_ELEMENT_THEORY":"SGP4","EPOCH":"2022-07-19T19:56:16.854432","PERIAPSIS":"546.021","SEMIMAJOR_AXIS":"6925.328","PERIOD":"95.592","COUNTRY_CODE":"US","NORAD_CAT_ID":"46118","OBJECT_TYPE":"PAYLOAD","REF_FRAME":"TEME","DECAY_DATE":null,"EPHEMERIS_TYPE":"0","TIME_SYSTEM":"UTC","MEAN_MOTION_DDOT":"0.0000000000000","FILE":"3517796","LAUNCH_DATE":"2020-08-18","ECCENTRICITY":"0.00016930","TLE_LINE1":"1 46118U 20057B   22200.83075063  .00002025  00000-0  15478-3 0  9999","SITE":"AFETR","OBJECT_ID":"2020-057B","ARG_OF_PERICENTER":"66.9346","REV_AT_EPOCH":"10705","APOAPSIS":"548.366","INCLINATION":"53.0535","TLE_LINE2":"2 46118  53.0535 162.0873 0001693  66.9346 293.1821 15.06406567107052","MEAN_ANOMALY":"293.1821","CENTER_NAME":"EARTH","CLASSIFICATION_TYPE":"U","MEAN_MOTION":"15.06406567","GP_ID":"208468451","ELEMENT_SET_NO":"999","OBJECT_NAME":"STARLINK-1588"},{"ECCENTRICITY":"0.00013660","FILE":"3517796","LAUNCH_DATE":"2020-08-18","MEAN_MOTION_DDOT":"0.0000000000000","GP_ID":"208468701","ELEMENT_SET_NO":"999","MEAN_MOTION":"15.06401275","OBJECT_NAME":"STARLINK-1593","TLE_LINE2":"2 46119  53.0530 161.8491 0001366  63.6165 296.4964 15.06401275107045","MEAN_ANOMALY":"296.4964","CLASSIFICATION_TYPE":"U","CENTER_NAME":"EARTH","TLE_LINE1":"1 46119U 20057C   22200.88604821  .00001440  00000-0  11555-3 0  9997","SITE":"AFETR","OBJECT_ID":"2020-057C","ARG_OF_PERICENTER":"63.6165","REV_AT_EPOCH":"10704","APOAPSIS":"548.156","INCLINATION":"53.0530","PERIAPSIS":"546.264","BSTAR":"0.00011555000000","RA_OF_ASC_NODE":"161.8491","MEAN_ELEMENT_THEORY":"SGP4","EPOCH":"2022-07-19T21:15:54.565344","RCS_SIZE":"LARGE","MEAN_MOTION_DOT":"0.00001440","EPHEMERIS_TYPE":"0","TIME_SYSTEM":"UTC","OBJECT_TYPE":"PAYLOAD","REF_FRAME":"TEME","DECAY_DATE":null,"SEMIMAJOR_AXIS":"6925.345","PERIOD":"95.592","COUNTRY_CODE":"US","NORAD_CAT_ID":"46119"},{"REV_AT_EPOCH":"10706","APOAPSIS":"548.453","INCLINATION":"53.0539","TLE_LINE1":"1 46120U 20057D   22200.87129842  .00002816  00000-0  20779-3 0  9999","SITE":"AFETR","OBJECT_ID":"2020-057D","ARG_OF_PERICENTER":"59.2011","OBJECT_NAME":"STARLINK-1601","GP_ID":"208468952","ELEMENT_SET_NO":"999","MEAN_MOTION":"15.06410917","TLE_LINE2":"2 46120  53.0539 161.9246 0001838  59.2011 300.9159 15.06410917107062","MEAN_ANOMALY":"300.9159","CENTER_NAME":"EARTH","CLASSIFICATION_TYPE":"U","LAUNCH_DATE":"2020-08-18","FILE":"3517796","MEAN_MOTION_DDOT":"0.0000000000000","ECCENTRICITY":"0.00018380","COUNTRY_CODE":"US","NORAD_CAT_ID":"46120","SEMIMAJOR_AXIS":"6925.315","PERIOD":"95.591","EPHEMERIS_TYPE":"0","TIME_SYSTEM":"UTC","REF_FRAME":"TEME","DECAY_DATE":null,"OBJECT_TYPE":"PAYLOAD","MEAN_MOTION_DOT":"0.00002816","RCS_SIZE":"LARGE","PERIAPSIS":"545.907","MEAN_ELEMENT_THEORY":"SGP4","EPOCH":"2022-07-19T20:54:40.183488","RA_OF_ASC_NODE":"161.9246","BSTAR":"0.00020779000000"},{"MEAN_MOTION_DOT":"0.00003978","RCS_SIZE":"LARGE","BSTAR":"0.00028581000000","RA_OF_ASC_NODE":"143.2616","MEAN_ELEMENT_THEORY":"SGP4","EPOCH":"2022-07-19T13:47:24.207072","PERIAPSIS":"546.091","SEMIMAJOR_AXIS":"6925.344","PERIOD":"95.592","COUNTRY_CODE":"US","NORAD_CAT_ID":"46121","OBJECT_TYPE":"PAYLOAD","REF_FRAME":"TEME","DECAY_DATE":null,"EPHEMERIS_TYPE":"0","TIME_SYSTEM":"UTC","MEAN_MOTION_DDOT":"0.0000000000000","FILE":"3517724","LAUNCH_DATE":"2020-08-18","ECCENTRICITY":"0.00016140","TLE_LINE1":"1 46121U 20057E   22200.57458573  .00003978  00000-0  28581-3 0  9992","OBJECT_ID":"2020-057E","SITE":"AFETR","ARG_OF_PERICENTER":"67.6611","REV_AT_EPOCH":"10601","INCLINATION":"53.0540","APOAPSIS":"548.326","TLE_LINE2":"2 46121  53.0540 143.2616 0001614  67.6611 292.4549 15.06401646106011","MEAN_ANOMALY":"292.4549","CLASSIFICATION_TYPE":"U","CENTER_NAME":"EARTH","GP_ID":"208442653","ELEMENT_SET_NO":"999","MEAN_MOTION":"15.06401646","OBJECT_NAME":"STARLINK-1602"},{"OBJECT_NAME":"STARLINK-1604","MEAN_MOTION":"15.06405768","GP_ID":"208467951","ELEMENT_SET_NO":"999","CENTER_NAME":"EARTH","MEAN_ANOMALY":"290.2923","CLASSIFICATION_TYPE":"U","TLE_LINE2":"2 46122  53.0539 122.0021 0001554  69.8233 290.2923 15.06405768107597","INCLINATION":"53.0539","APOAPSIS":"548.272","REV_AT_EPOCH":"10759","ARG_OF_PERICENTER":"69.8233","TLE_LINE1":"1 46122U 20057F   22200.84918414  .00003558  00000-0  25757-3 0  9994","SITE":"AFETR","OBJECT_ID":"2020-057F","ECCENTRICITY":"0.00015540","LAUNCH_DATE":"2020-08-18","FILE":"3517796","MEAN_MOTION_DDOT":"0.0000000000000","TIME_SYSTEM":"UTC","EPHEMERIS_TYPE":"0","DECAY_DATE":null,"REF_FRAME":"TEME","OBJECT_TYPE":"PAYLOAD","NORAD_CAT_ID":"46122","COUNTRY_CODE":"US","PERIOD":"95.592","SEMIMAJOR_AXIS":"6925.331","PERIAPSIS":"546.120","EPOCH":"2022-07-19T20:22:49.509696","MEAN_ELEMENT_THEORY":"SGP4","RA_OF_ASC_NODE":"122.0021","BSTAR":"0.00025757000000","MEAN_MOTION_DOT":"0.00003558","RCS_SIZE":"LARGE"},{"OBJECT_TYPE":"PAYLOAD","DECAY_DATE":null,"REF_FRAME":"TEME","TIME_SYSTEM":"UTC","EPHEMERIS_TYPE":"0","PERIOD":"95.592","SEMIMAJOR_AXIS":"6925.357","NORAD_CAT_ID":"46123","COUNTRY_CODE":"US","BSTAR":"0.00017235000000","RA_OF_ASC_NODE":"122.0872","EPOCH":"2022-07-19T20:01:35.990112","MEAN_ELEMENT_THEORY":"SGP4","PERIAPSIS":"546.130","MEAN_MOTION_DOT":"0.00002286","RCS_SIZE":"LARGE","MEAN_ANOMALY":"293.8329","CENTER_NAME":"EARTH","CLASSIFICATION_TYPE":"U","TLE_LINE2":"2 46123  53.0554 122.0872 0001577  66.2825 293.8329 15.06397211107617","GP_ID":"208468201","MEAN_MOTION":"15.06397211","ELEMENT_SET_NO":"999","OBJECT_NAME":"STARLINK-1605","ARG_OF_PERICENTER":"66.2825","OBJECT_ID":"2020-057G","TLE_LINE1":"1 46123U 20057G   22200.83444433  .00002286  00000-0  17235-3 0  9998","SITE":"AFETR","APOAPSIS":"548.314","INCLINATION":"53.0554","REV_AT_EPOCH":"10761","ECCENTRICITY":"0.00015770","MEAN_MOTION_DDOT":"0.0000000000000","FILE":"3517796","LAUNCH_DATE":"2020-08-18"},{"SEMIMAJOR_AXIS":"6925.311","PERIOD":"95.591","COUNTRY_CODE":"US","NORAD_CAT_ID":"46124","EPHEMERIS_TYPE":"0","TIME_SYSTEM":"UTC","OBJECT_TYPE":"PAYLOAD","REF_FRAME":"TEME","DECAY_DATE":null,"MEAN_MOTION_DOT":"-0.00000943","RCS_SIZE":"LARGE","PERIAPSIS":"546.033","RA_OF_ASC_NODE":"122.3415","BSTAR":"-0.00004440900000","MEAN_ELEMENT_THEORY":"SGP4","EPOCH":"2022-07-19T18:36:39.796704","SITE":"AFETR","TLE_LINE1":"1 46124U 20057H   22200.77546061 -.00000943  00000-0 -44409-4 0  9996","OBJECT_ID":"2020-057H","ARG_OF_PERICENTER":"73.9880","REV_AT_EPOCH":"10633","APOAPSIS":"548.319","INCLINATION":"53.0543","MEAN_MOTION":"15.06412204","GP_ID":"208469453","ELEMENT_SET_NO":"999","OBJECT_NAME":"STARLINK-1614","TLE_LINE2":"2 46124  53.0543 122.3415 0001650  73.9880 286.1290 15.06412204106330","CLASSIFICATION_TYPE":"U","MEAN_ANOMALY":"286.1290","CENTER_NAME":"EARTH","FILE":"3517796","LAUNCH_DATE":"2020-08-18","MEAN_MOTION_DDOT":"0.0000000000000","ECCENTRICITY":"0.00016500"},{"RCS_SIZE":"LARGE","MEAN_MOTION_DOT":"0.00001936","PERIAPSIS":"546.122","EPOCH":"2022-07-19T21:21:12.698784","MEAN_ELEMENT_THEORY":"SGP4","BSTAR":"0.00014884000000","RA_OF_ASC_NODE":"161.8412","NORAD_CAT_ID":"46125","COUNTRY_CODE":"US","PERIOD":"95.592","SEMIMAJOR_AXIS":"6925.332","TIME_SYSTEM":"UTC","EPHEMERIS_TYPE":"0","DECAY_DATE":null,"REF_FRAME":"TEME","OBJECT_TYPE":"PAYLOAD","LAUNCH_DATE":"2020-08-18","FILE":"3517796","MEAN_MOTION_DDOT":"0.0000000000000","ECCENTRICITY":"0.00015520","APOAPSIS":"548.272","INCLINATION":"53.0558","REV_AT_EPOCH":"10704","ARG_OF_PERICENTER":"73.7995","TLE_LINE1":"1 46125U 20057J   22200.88973031  .00001936  00000-0  14884-3 0  9994","OBJECT_ID":"2020-057J","SITE":"AFETR","OBJECT_NAME":"STARLINK-1618","GP_ID":"208469703","ELEMENT_SET_NO":"999","MEAN_MOTION":"15.06405443","MEAN_ANOMALY":"286.3165","CENTER_NAME":"EARTH","CLASSIFICATION_TYPE":"U","TLE_LINE2":"2 46125  53.0558 161.8412 0001552  73.7995 286.3165 15.06405443107047"},{"ECCENTRICITY":"0.00015740","LAUNCH_DATE":"2020-08-18","FILE":"3517796","MEAN_MOTION_DDOT":"0.0000000000000","OBJECT_NAME":"STARLINK-1619","GP_ID":"208468452","MEAN_MOTION":"15.06403005","ELEMENT_SET_NO":"999","CENTER_NAME":"EARTH","CLASSIFICATION_TYPE":"U","MEAN_ANOMALY":"281.9631","TLE_LINE2":"2 46126  53.0545 161.6583 0001574  78.1534 281.9631 15.06403005105794","APOAPSIS":"548.294","INCLINATION":"53.0545","REV_AT_EPOCH":"10579","ARG_OF_PERICENTER":"78.1534","SITE":"AFETR","TLE_LINE1":"1 46126U 20057K   22200.93027489  .00002253  00000-0  17009-3 0  9993","OBJECT_ID":"2020-057K","PERIAPSIS":"546.114","EPOCH":"2022-07-19T22:19:35.750496","MEAN_ELEMENT_THEORY":"SGP4","BSTAR":"0.00017009000000","RA_OF_ASC_NODE":"161.6583","RCS_SIZE":"LARGE","MEAN_MOTION_DOT":"0.00002253","TIME_SYSTEM":"UTC","EPHEMERIS_TYPE":"0","DECAY_DATE":null,"REF_FRAME":"TEME","OBJECT_TYPE":"PAYLOAD","NORAD_CAT_ID":"46126","COUNTRY_CODE":"US","PERIOD":"95.592","SEMIMAJOR_AXIS":"6925.339"},{"ECCENTRICITY":"0.00017190","FILE":"3517796","LAUNCH_DATE":"2020-08-18","MEAN_MOTION_DDOT":"0.0000000000000","GP_ID":"208468702","MEAN_MOTION":"15.06405558","ELEMENT_SET_NO":"999","OBJECT_NAME":"STARLINK-1621","MEAN_ANOMALY":"289.9062","CENTER_NAME":"EARTH","CLASSIFICATION_TYPE":"U","TLE_LINE2":"2 46127  53.0537 141.9861 0001719  70.2112 289.9062 15.06405558106053","ARG_OF_PERICENTER":"70.2112","TLE_LINE1":"1 46127U 20057L   22200.85471311  .00003528  00000-0  25560-3 0  9999","OBJECT_ID":"2020-057L","SITE":"AFETR","APOAPSIS":"548.387","INCLINATION":"53.0537","REV_AT_EPOCH":"10605","PERIAPSIS":"546.006","BSTAR":"0.00025560000000","RA_OF_ASC_NODE":"141.9861","EPOCH":"2022-07-19T20:30:47.212704","MEAN_ELEMENT_THEORY":"SGP4","RCS_SIZE":"LARGE","MEAN_MOTION_DOT":"0.00003528","TIME_SYSTEM":"UTC","EPHEMERIS_TYPE":"0","OBJECT_TYPE":"PAYLOAD","DECAY_DATE":null,"REF_FRAME":"TEME","PERIOD":"95.592","SEMIMAJOR_AXIS":"6925.332","NORAD_CAT_ID":"46127","COUNTRY_CODE":"US"}];
